CCSDS_OMM_VERS = 2.0
CREATION_DATE  = 
ORIGINATOR     = 

OBJECT_NAME    = ATLAS CENTAUR 2
OBJECT_ID      = 1963-047A
CENTER_NAME    = EARTH
REF_FRAME      = TEME
TIME_SYSTEM    = UTC
MEAN_ELEMENT_THEORY = SGP/SGP4

EPOCH          = 2026-03-29T03:03:16.771680
MEAN_MOTION    = 14.12145716
ECCENTRICITY   = .0547436
INCLINATION    = 30.3575
RA_OF_ASC_NODE = 87.0065
ARG_OF_PERICENTER = 251.6060
MEAN_ANOMALY   = 102.4279

EPHEMERIS_TYPE = 0
CLASSIFICATION_TYPE = U
NORAD_CAT_ID   = 694
ELEMENT_SET_NO = 999
REV_AT_EPOCH   = 13437
BSTAR          = .35676E-3
MEAN_MOTION_DOT = .3034E-4
MEAN_MOTION_DDOT = 0

CCSDS_OMM_VERS = 2.0
CREATION_DATE  = 
ORIGINATOR     = 

OBJECT_NAME    = THOR AGENA D R/B
OBJECT_ID      = 1964-002A
CENTER_NAME    = EARTH
REF_FRAME      = TEME
TIME_SYSTEM    = UTC
MEAN_ELEMENT_THEORY = SGP/SGP4

EPOCH          = 2026-03-29T01:24:29.646144
MEAN_MOTION    = 14.34030182
ECCENTRICITY   = .0032574
INCLINATION    = 99.1214
RA_OF_ASC_NODE = 102.4516
ARG_OF_PERICENTER = 200.4630
MEAN_ANOMALY   = 159.5250

EPHEMERIS_TYPE = 0
CLASSIFICATION_TYPE = U
NORAD_CAT_ID   = 733
ELEMENT_SET_NO = 999
REV_AT_EPOCH   = 24107
BSTAR          = .95E-4
MEAN_MOTION_DOT = .218E-5
MEAN_MOTION_DDOT = 0

CCSDS_OMM_VERS = 2.0
CREATION_DATE  = 
ORIGINATOR     = 

OBJECT_NAME    = SL-3 R/B
OBJECT_ID      = 1964-053B
CENTER_NAME    = EARTH
REF_FRAME      = TEME
TIME_SYSTEM    = UTC
MEAN_ELEMENT_THEORY = SGP/SGP4

EPOCH          = 2026-03-28T22:07:24.174912
MEAN_MOTION    = 14.61381015
ECCENTRICITY   = .0080415
INCLINATION    = 65.0756
RA_OF_ASC_NODE = 274.8505
ARG_OF_PERICENTER = 286.1773
MEAN_ANOMALY   = 73.0488

EPHEMERIS_TYPE = 0
CLASSIFICATION_TYPE = U
NORAD_CAT_ID   = 877
ELEMENT_SET_NO = 999
REV_AT_EPOCH   = 26960
BSTAR          = .64749E-4
MEAN_MOTION_DOT = .209E-5
MEAN_MOTION_DDOT = 0

CCSDS_OMM_VERS = 2.0
CREATION_DATE  = 
ORIGINATOR     = 

OBJECT_NAME    = SL-8 R/B
OBJECT_ID      = 1967-045B
CENTER_NAME    = EARTH
REF_FRAME      = TEME
TIME_SYSTEM    = UTC
MEAN_ELEMENT_THEORY = SGP/SGP4

EPOCH          = 2026-03-29T02:09:27.189792
MEAN_MOTION    = 14.45637631
ECCENTRICITY   = .0064885
INCLINATION    = 74.0111
RA_OF_ASC_NODE = 311.8596
ARG_OF_PERICENTER = 313.8293
MEAN_ANOMALY   = 45.7511

EPHEMERIS_TYPE = 0
CLASSIFICATION_TYPE = U
NORAD_CAT_ID   = 2802
ELEMENT_SET_NO = 999
REV_AT_EPOCH   = 9182
BSTAR          = .91647E-4
MEAN_MOTION_DOT = .304E-5
MEAN_MOTION_DDOT = 0

CCSDS_OMM_VERS = 2.0
CREATION_DATE  = 
ORIGINATOR     = 

OBJECT_NAME    = SL-8 R/B
OBJECT_ID      = 1968-040B
CENTER_NAME    = EARTH
REF_FRAME      = TEME
TIME_SYSTEM    = UTC
MEAN_ELEMENT_THEORY = SGP/SGP4

EPOCH          = 2026-03-28T21:00:42.150240
MEAN_MOTION    = 15.03383897
ECCENTRICITY   = .0023228
INCLINATION    = 74.0295
RA_OF_ASC_NODE = 274.4851
ARG_OF_PERICENTER = 90.6913
MEAN_ANOMALY   = 269.6937

EPHEMERIS_TYPE = 0
CLASSIFICATION_TYPE = U
NORAD_CAT_ID   = 3230
ELEMENT_SET_NO = 999
REV_AT_EPOCH   = 9289
BSTAR          = .29303E-3
MEAN_MOTION_DOT = .3966E-4
MEAN_MOTION_DDOT = 0

CCSDS_OMM_VERS = 2.0
CREATION_DATE  = 
ORIGINATOR     = 

OBJECT_NAME    = OAO 2
OBJECT_ID      = 1968-110A
CENTER_NAME    = EARTH
REF_FRAME      = TEME
TIME_SYSTEM    = UTC
MEAN_ELEMENT_THEORY = SGP/SGP4

EPOCH          = 2026-03-29T05:41:59.701920
MEAN_MOTION    = 14.47318850
ECCENTRICITY   = .0005703
INCLINATION    = 34.9924
RA_OF_ASC_NODE = 156.0797
ARG_OF_PERICENTER = 348.5775
MEAN_ANOMALY   = 11.4785

EPHEMERIS_TYPE = 0
CLASSIFICATION_TYPE = U
NORAD_CAT_ID   = 3597
ELEMENT_SET_NO = 999
REV_AT_EPOCH   = 2193
BSTAR          = .83557E-4
MEAN_MOTION_DOT = .291E-5
MEAN_MOTION_DDOT = 0

CCSDS_OMM_VERS = 2.0
CREATION_DATE  = 
ORIGINATOR     = 

OBJECT_NAME    = ISIS 1
OBJECT_ID      = 1969-009A
CENTER_NAME    = EARTH
REF_FRAME      = TEME
TIME_SYSTEM    = UTC
MEAN_ELEMENT_THEORY = SGP/SGP4

EPOCH          = 2026-03-29T04:33:37.164672
MEAN_MOTION    = 11.30419292
ECCENTRICITY   = .170783
INCLINATION    = 88.4506
RA_OF_ASC_NODE = 153.1804
ARG_OF_PERICENTER = 49.8257
MEAN_ANOMALY   = 324.0243

EPHEMERIS_TYPE = 0
CLASSIFICATION_TYPE = U
NORAD_CAT_ID   = 3669
ELEMENT_SET_NO = 999
REV_AT_EPOCH   = 35073
BSTAR          = .10247E-3
MEAN_MOTION_DOT = .163E-5
MEAN_MOTION_DDOT = 0

CCSDS_OMM_VERS = 2.0
CREATION_DATE  = 
ORIGINATOR     = 

OBJECT_NAME    = SERT 2
OBJECT_ID      = 1970-009A
CENTER_NAME    = EARTH
REF_FRAME      = TEME
TIME_SYSTEM    = UTC
MEAN_ELEMENT_THEORY = SGP/SGP4

EPOCH          = 2026-03-29T03:04:50.990880
MEAN_MOTION    = 13.58731589
ECCENTRICITY   = .0005633
INCLINATION    = 99.2784
RA_OF_ASC_NODE = 30.1608
ARG_OF_PERICENTER = 110.9021
MEAN_ANOMALY   = 260.3901

EPHEMERIS_TYPE = 0
CLASSIFICATION_TYPE = U
NORAD_CAT_ID   = 4327
ELEMENT_SET_NO = 999
REV_AT_EPOCH   = 78253
BSTAR          = .50461E-4
MEAN_MOTION_DOT = -.4E-7
MEAN_MOTION_DDOT = 0

CCSDS_OMM_VERS = 2.0
CREATION_DATE  = 
ORIGINATOR     = 

OBJECT_NAME    = SL-3 R/B
OBJECT_ID      = 1971-028B
CENTER_NAME    = EARTH
REF_FRAME      = TEME
TIME_SYSTEM    = UTC
MEAN_ELEMENT_THEORY = SGP/SGP4

EPOCH          = 2026-03-29T03:08:59.504928
MEAN_MOTION    = 15.62847981
ECCENTRICITY   = .001452
INCLINATION    = 81.2368
RA_OF_ASC_NODE = 27.9882
ARG_OF_PERICENTER = 204.5767
MEAN_ANOMALY   = 155.4797

EPHEMERIS_TYPE = 0
CLASSIFICATION_TYPE = U
NORAD_CAT_ID   = 5118
ELEMENT_SET_NO = 999
REV_AT_EPOCH   = 99170
BSTAR          = .64908E-3
MEAN_MOTION_DOT = .59131E-3
MEAN_MOTION_DDOT = 0

CCSDS_OMM_VERS = 2.0
CREATION_DATE  = 
ORIGINATOR     = 

OBJECT_NAME    = ASTEX 1
OBJECT_ID      = 1971-089A
CENTER_NAME    = EARTH
REF_FRAME      = TEME
TIME_SYSTEM    = UTC
MEAN_ELEMENT_THEORY = SGP/SGP4

EPOCH          = 2026-03-29T04:53:20.437728
MEAN_MOTION    = 14.50789619
ECCENTRICITY   = .0016369
INCLINATION    = 92.7091
RA_OF_ASC_NODE = 158.0668
ARG_OF_PERICENTER = 26.8585
MEAN_ANOMALY   = 333.3465

EPHEMERIS_TYPE = 0
CLASSIFICATION_TYPE = U
NORAD_CAT_ID   = 5560
ELEMENT_SET_NO = 999
REV_AT_EPOCH   = 86513
BSTAR          = .14001E-3
MEAN_MOTION_DOT = .551E-5
MEAN_MOTION_DDOT = 0

CCSDS_OMM_VERS = 2.0
CREATION_DATE  = 
ORIGINATOR     = 

OBJECT_NAME    = SL-8 R/B
OBJECT_ID      = 1971-119B
CENTER_NAME    = EARTH
REF_FRAME      = TEME
TIME_SYSTEM    = UTC
MEAN_ELEMENT_THEORY = SGP/SGP4

EPOCH          = 2026-03-29T04:56:24.295200
MEAN_MOTION    = 14.38232385
ECCENTRICITY   = .0546459
INCLINATION    = 73.8857
RA_OF_ASC_NODE = 139.2307
ARG_OF_PERICENTER = 101.7313
MEAN_ANOMALY   = 264.5659

EPHEMERIS_TYPE = 0
CLASSIFICATION_TYPE = U
NORAD_CAT_ID   = 5730
ELEMENT_SET_NO = 999
REV_AT_EPOCH   = 65829
BSTAR          = .45716E-3
MEAN_MOTION_DOT = .8737E-4
MEAN_MOTION_DDOT = 0

CCSDS_OMM_VERS = 2.0
CREATION_DATE  = 
ORIGINATOR     = 

OBJECT_NAME    = OAO 3 (COPERNICUS)
OBJECT_ID      = 1972-065A
CENTER_NAME    = EARTH
REF_FRAME      = TEME
TIME_SYSTEM    = UTC
MEAN_ELEMENT_THEORY = SGP/SGP4

EPOCH          = 2026-03-28T16:41:41.771904
MEAN_MOTION    = 14.60012766
ECCENTRICITY   = .00071429
INCLINATION    = 35.0049
RA_OF_ASC_NODE = 189.0282
ARG_OF_PERICENTER = 312.8882
MEAN_ANOMALY   = 195.3271

EPHEMERIS_TYPE = 0
CLASSIFICATION_TYPE = U
NORAD_CAT_ID   = 6153
ELEMENT_SET_NO = 999
REV_AT_EPOCH   = 84897
BSTAR          = .74322828E-4
MEAN_MOTION_DOT = .341E-5
MEAN_MOTION_DDOT = 0

